EYESAT A (AO-27)        
1 22825U 93061C   26184.64172526  .00000129  00000+0  66110-4 0  9991
2 22825  98.6874 252.0488 0009299  57.1001 303.1075 14.30946735709350
ITAMSAT (IO-26)         
1 22826U 93061D   26185.45505957  .00000132  00000+0  66438-4 0  9997
2 22826  98.6820 252.7811 0009558  39.4050 320.7827 14.31374357709787
RADIO ROSTO (RS15)      
1 23439U 94085A   26185.67642109 -.00000021  00000+0  61026-3 0  9995
2 23439  64.8176 274.9321 0156534   0.6436 359.4663 11.27583563297876
JAS-2 (FO-29)           
1 24278U 96046B   26185.83332930 -.00000022  00000+0  11395-4 0  9998
2 24278  98.5226  32.2868 0350728  50.7729 312.3996 13.53275006475552
FORTE                   
1 24920U 97047A   26185.67715804  .00000266  00000+0  13019-3 0  9994
2 24920  69.9545 334.5145 0024567 256.2124 103.6264 14.27952788501188
TECHSAT 1B (GO-32)      
1 25397U 98043D   26185.69536283  .00000103  00000+0  64728-4 0  9998
2 25397  99.0076 178.8961 0001849 131.4740 228.6597 14.24432028453822
ISS (ZARYA)             
1 25544U 98067A   26185.79857271  .00009725  00000+0  18504-3 0  9991
2 25544  51.6303 212.9192 0006761 256.1012 103.9224 15.48894567574489
IMAGE                   
1 26113U 00017A   26181.91168621 -.00000033  00000+0  00000+0 0  9998
2 26113  94.2398 315.5527 7422471 286.2504   9.4555  1.68666270161730
CLUSTER II-FM7 (SAMBA)  
1 26410U 00041A   26188.21797159  .00007566  00000+0  00000+0 0  9996
2 26410 149.8716  54.4790 9079263 271.8893 359.5006  0.44837774 20390
CLUSTER II-FM8 (TANGO)  
1 26464U 00045B   26184.19681525  .00012165  00000+0  00000+0 0  9992
2 26464 150.1065  54.7656 9078554 272.0035   2.3073  0.44420887 20387
ODIN                    
1 26702U 01007A   26185.58418876  .00550414  00000+0  23840-2 0  9991
2 26702  97.3755 227.7265 0005271 136.8814 223.2869 15.83489487392140
OMNI-M1                 
1 26857U 01026A   26183.00645506  .00000007  00000+0  00000+0 0  9998
2 26857  44.8270 241.8483 0013799  56.1769 304.0224  3.92402003206150
PCSAT (NO-44)           
1 26931U 01043C   26185.76031717  .00000180  00000+0  98038-4 0  9993
2 26931  67.0488 198.8194 0006011 265.8783  94.1632 14.31962451292962
PROBA-1                 
1 26958U 01049B   26185.99153834  .00004292  00000+0  27671-3 0  9990
2 26958  97.9596 195.1461 0056230  63.5053 297.1926 15.07577420346302
SAUDISAT 1C (SO-50)     
1 27607U 02058C   26185.68749616  .00001404  00000+0  18212-3 0  9991
2 27607  64.5520  74.8394 0074817 259.1898 100.0781 14.83086074267058
CORIOLIS                
1 27640U 03001A   26185.74295702  .00000161  00000+0  96082-4 0  9997
2 27640  98.7128 192.3598 0014423 157.9020 202.2781 14.19949990216715
CUTE-1 (CO-55)          
1 27844U 03031E   26185.73961448  .00000442  00000+0  21011-3 0  9993
2 27844  98.6737 194.0777 0010516 129.7528 230.4579 14.24347463194179
CUBESAT XI-IV (CO-57)   
1 27848U 03031J   26185.94773638  .00000336  00000+0  16664-3 0  9992
2 27848  98.6769 193.9817 0010102 146.4963 213.6856 14.23630898193908
MOZHAETS 4 (RS22)       
1 27939U 03042A   26186.01487558  .00000891  00000+0  14538-3 0  9991
2 27939  98.3470  10.8774 0010431 206.7413 273.3478 14.73499527218176
